$$SOE
2459580.500000000, A.D. 2022-Jan-01 00:00:00.0000, 2.460556998079505E+08, 3.585440837367733E+08, -8.303719045455155E+07,
2459587.500000000, A.D. 2022-Jan-08 00:00:00.0000, 2.370793783359615E+08, 3.640618058865198E+08, -8.256419213530667E+07,
2459594.500000000, A.D. 2022-Jan-15 00:00:00.0000, 2.279699580590297E+08, 3.693751347825122E+08, -8.204484351230058E+07,
2459601.500000000, A.D. 2022-Jan-22 00:00:00.0000, 2.187321382147874E+08, 3.744804109265059E+08, -8.147928626389964E+07,
2459608.500000000, A.D. 2022-Jan-29 00:00:00.0000, 2.093707255801170E+08, 3.793740770853859E+08, -8.086769035026239E+07,
2459615.500000000, A.D. 2022-Feb-05 00:00:00.0000, 1.998906303657038E+08, 3.840526813099511E+08, -8.021025411201650E+07,
2459622.500000000, A.D. 2022-Feb-12 00:00:00.0000, 1.902968641443031E+08, 3.885128788784239E+08, -7.950720463425973E+07,
2459629.500000000, A.D. 2022-Feb-19 00:00:00.0000, 1.805945384870809E+08, 3.927514355266368E+08, -7.875879805982044E+07,
2459636.500000000, A.D. 2022-Feb-26 00:00:00.0000, 1.707888629939643E+08, 3.967652312343976E+08, -7.796531978903151E+07,
2459643.500000000, A.D. 2022-Mar-05 00:00:00.0000, 1.608851428750175E+08, 4.005512639447420E+08, -7.712708462995453E+07,
2459650.500000000, A.D. 2022-Mar-12 00:00:00.0000, 1.508887763031938E+08, 4.041066531441265E+08, -7.624443692395556E+07,
2459657.500000000, A.D. 2022-Mar-19 00:00:00.0000, 1.408052516085184E+08, 4.074286433251899E+08, -7.531775065011151E+07,
2459664.500000000, A.D. 2022-Mar-26 00:00:00.0000, 1.306401443354374E+08, 4.105146073195401E+08, -7.434742951023783E+07,
2459671.500000000, A.D. 2022-Apr-02 00:00:00.0000, 1.203991142307374E+08, 4.133620494380008E+08, -7.333390700455970E+07,
2459678.500000000, A.D. 2022-Apr-09 00:00:00.0000, 1.100879024339518E+08, 4.159686084165649E+08, -7.227764652187817E+07,
2459685.500000000, A.D. 2022-Apr-16 00:00:00.0000, 9.971232922795954E+07, 4.183320608161142E+08, -7.117914142311776E+07,
2459692.500000000, A.D. 2022-Apr-23 00:00:00.0000, 8.927829108310132E+07, 4.204503259533273E+08, -7.003891491288395E+07,
2459699.500000000, A.D. 2022-Apr-30 00:00:00.0000, 7.879175512598766E+07, 4.223214701072277E+08, -6.885751970929977E+07,
2459706.500000000, A.D. 2022-May-07 00:00:00.0000, 6.825875409458096E+07, 4.239437080202618E+08, -6.763553795297654E+07,
2459713.500000000, A.D. 2022-May-14 00:00:00.0000, 5.768538317140878E+07, 4.253154047280945E+08, -6.637358123471814E+07,
2459720.500000000, A.D. 2022-May-21 00:00:00.0000, 4.707779666793836E+07, 4.264350784692270E+08, -6.507229049321510E+07,
2459727.500000000, A.D. 2022-May-28 00:00:00.0000, 3.644220408406421E+07, 4.273014037069943E+08, -6.373233581610399E+07,
2459734.500000000, A.D. 2022-Jun-04 00:00:00.0000, 2.578486582271076E+07, 4.279132139434748E+08, -6.235441619462353E+07,
2459741.500000000, A.D. 2022-Jun-11 00:00:00.0000, 1.511208870779911E+07, 4.282695043203037E+08, -6.093925924441274E+07,
2459748.500000000, A.D. 2022-Jun-18 00:00:00.0000, 4.430221348378672E+06, 4.283694340126135E+08, -5.948762089444196E+07,
2459755.500000000, A.D. 2022-Jun-25 00:00:00.0000, -6.254350617119788E+06, 4.282123283759674E+08, -5.800028504905263E+07,
2459762.500000000, A.D. 2022-Jul-02 00:00:00.0000, -1.693520925765272E+07, 4.277976807737436E+08, -5.647806324038869E+07,
2459769.500000000, A.D. 2022-Jul-09 00:00:00.0000, -2.760590867213195E+07, 4.271251542556110E+08, -5.492179429230194E+07,
2459776.500000000, A.D. 2022-Jul-16 00:00:00.0000, -3.825997894759095E+07, 4.261945841649231E+08, -5.333234390236215E+07,
2459783.500000000, A.D. 2022-Jul-23 00:00:00.0000, -4.889093194379438E+07, 4.250059817479630E+08, -5.171060393434110E+07,
2459790.500000000, A.D. 2022-Jul-30 00:00:00.0000, -5.949226881202468E+07, 4.235595354025015E+08, -5.005749170213370E+07,
2459797.500000000, A.D. 2022-Aug-06 00:00:00.0000, -7.005748564410463E+07, 4.218556102070714E+08, -4.837394952173229E+07,
2459804.500000000, A.D. 2022-Aug-13 00:00:00.0000, -8.058007806685677E+07, 4.198947484829143E+08, -4.666094423153186E+07,
2459811.500000000, A.D. 2022-Aug-20 00:00:00.0000, -9.105354634055278E+07, 4.176776708790604E+08, -4.491946657805160E+07,
2459818.500000000, A.D. 2022-Aug-27 00:00:00.0000, -1.014714008839419E+08, 4.152052772454538E+08, -4.315053053189293E+07,
2459825.500000000, A.D. 2022-Sep-03 00:00:00.0000, -1.118271679704617E+08, 4.124786471760991E+08, -4.135517256531364E+07,
2459832.500000000, A.D. 2022-Sep-10 00:00:00.0000, -1.221143954989886E+08, 4.094990402411000E+08, -3.953445089813462E+07,
2459839.500000000, A.D. 2022-Sep-17 00:00:00.0000, -1.323266588027579E+08, 4.062678959035440E+08, -3.768944471603121E+07,
2459846.500000000, A.D. 2022-Sep-24 00:00:00.0000, -1.424575664275183E+08, 4.027868330696599E+08, -3.582125337252513E+07,
2459853.500000000, A.D. 2022-Oct-01 00:00:00.0000, -1.525007656289029E+08, 3.990576492492841E+08, -3.393099560008779E+07,
2459860.500000000, A.D. 2022-Oct-08 00:00:00.0000, -1.624499471712271E+08, 3.950823198474811E+08, -3.201980872645997E+07,
2459867.500000000, A.D. 2022-Oct-15 00:00:00.0000, -1.722988503494372E+08, 3.908629987860007E+08, -3.008884771430342E+07,
2459874.500000000, A.D. 2022-Oct-22 00:00:00.0000, -1.820412704040955E+08, 3.864020187707297E+08, -2.813928396334626E+07,
2459881.500000000, A.D. 2022-Oct-29 00:00:00.0000, -1.916710658186466E+08, 3.817018886077570E+08, -2.617230431680405E+07,
2459888.500000000, A.D. 2022-Nov-05 00:00:00.0000, -2.011821633911801E+08, 3.767652903062942E+08, -2.418911024176075E+07,
2459895.500000000, A.D. 2022-Nov-12 00:00:00.0000, -2.105685630370805E+08, 3.715950772384993E+08, -2.219091690206024E+07,
2459902.500000000, A.D. 2022-Nov-19 00:00:00.0000, -2.198243430307073E+08, 3.661942724041907E+08, -2.017895213762991E+07,
2459909.500000000, A.D. 2022-Nov-26 00:00:00.0000, -2.289436654129622E+08, 3.605660664040610E+08, -1.815445540836670E+07,
2459916.500000000, A.D. 2022-Dec-03 00:00:00.0000, -2.379207813885336E+08, 3.547138151116075E+08, -1.611867672047886E+07,
2459923.500000000, A.D. 2022-Dec-10 00:00:00.0000, -2.467500366573599E+08, 3.486410370651900E+08, -1.407287553976078E+07,
2459930.500000000, A.D. 2022-Dec-17 00:00:00.0000, -2.554258766457604E+08, 3.423514105586865E+08, -1.201831969797544E+07,
2459937.500000000, A.D. 2022-Dec-24 00:00:00.0000, -2.639428515181237E+08, 3.358487703689604E+08, -9.956284309632629E+06,
2459944.500000000, A.D. 2022-Dec-31 00:00:00.0000, -2.722956206019666E+08, 3.291371042321551E+08, -7.888050725044847E+06,
2459951.500000000, A.D. 2023-Jan-07 00:00:00.0000, -2.804789560947410E+08, 3.222205500362718E+08, -5.814905454172924E+06,
2459958.500000000, A.D. 2023-Jan-14 00:00:00.0000, -2.884877480116780E+08, 3.151033942337526E+08, -3.738138842330992E+06,
2459965.500000000, A.D. 2023-Jan-21 00:00:00.0000, -2.963170110099992E+08, 3.077900683100563E+08, -1.659043699948460E+06,
2459972.500000000, A.D. 2023-Jan-28 00:00:00.0000, -3.039618894091601E+08, 3.002851431177433E+08, 4.210857597009242E+05,
2459979.500000000, A.D. 2023-Feb-04 00:00:00.0000, -3.114176606073892E+08, 2.925933241077647E+08, 2.500954939605311E+06,
2459986.500000000, A.D. 2023-Feb-11 00:00:00.0000, -3.186797386836563E+08, 2.847194472726514E+08, 4.579269981466785E+06,
2459993.500000000, A.D. 2023-Feb-18 00:00:00.0000, -3.257436782403970E+08, 2.766684749868336E+08, 6.654738927863896E+06,
2460000.500000000, A.D. 2023-Feb-25 00:00:00.0000, -3.326051782167672E+08, 2.684454915895113E+08, 8.726072884782657E+06,
2460007.500000000, A.D. 2023-Mar-04 00:00:00.0000, -3.392600855644916E+08, 2.600556987366372E+08, 1.079198717465936E+07,
2460014.500000000, A.D. 2023-Mar-11 00:00:00.0000, -3.457043987531309E+08, 2.515044105315001E+08, 1.285120247540639E+07,
2460021.500000000, A.D. 2023-Mar-18 00:00:00.0000, -3.519342710536981E+08, 2.427970483944871E+08, 1.490244593525319E+07,
2460028.500000000, A.D. 2023-Mar-25 00:00:00.0000, -3.579460133934637E+08, 2.339391356354726E+08, 1.694445223924024E+07,
2460035.500000000, A.D. 2023-Apr-01 00:00:00.0000, -3.637360963536569E+08, 2.249362921329559E+08, 1.897596461902513E+07,
2460042.500000000, A.D. 2023-Apr-08 00:00:00.0000, -3.693011519224859E+08, 2.157942303555058E+08, 2.099573596104346E+07,
2460049.500000000, A.D. 2023-Apr-15 00:00:00.0000, -3.746379773393803E+08, 2.065187516310732E+08, 2.300253013550320E+07,
2460056.500000000, A.D. 2023-Apr-22 00:00:00.0000, -3.797435392187098E+08, 1.971157396257148E+08, 2.499512312948494E+07,
2460063.500000000, A.D. 2023-Apr-29 00:00:00.0000, -3.846149752110721E+08, 1.875911532951777E+08, 2.697230391596027E+07,
2460070.500000000, A.D. 2023-May-06 00:00:00.0000, -3.892495949578733E+08, 1.779510210980114E+08, 2.893287536396676E+07,
2460077.500000000, A.D. 2023-May-13 00:00:00.0000, -3.936448813149431E+08, 1.682014355855150E+08, 3.087565520458542E+07,
2460084.500000000, A.D. 2023-May-20 00:00:00.0000, -3.977984916104370E+08, 1.583485478863364E+08, 3.279947698924825E+07,
2460091.500000000, A.D. 2023-May-27 00:00:00.0000, -4.017082587447671E+08, 1.483985620646722E+08, 3.470319101850817E+07,
2460098.500000000, A.D. 2023-Jun-03 00:00:00.0000, -4.053721920784362E+08, 1.383577293876103E+08, 3.658566523665164E+07,
2460105.500000000, A.D. 2023-Jun-10 00:00:00.0000, -4.087884780880023E+08, 1.282323424989519E+08, 3.844578608761772E+07,
2460112.500000000, A.D. 2023-Jun-17 00:00:00.0000, -4.119554807043132E+08, 1.180287294509602E+08, 4.028245931803019E+07,
2460119.500000000, A.D. 2023-Jun-24 00:00:00.0000, -4.148717410152544E+08, 1.077532476605454E+08, 4.209461070143421E+07,
2460126.500000000, A.D. 2023-Jul-01 00:00:00.0000, -4.175359760816802E+08, 9.741227862765096E+07, 4.388118672707562E+07,
2460133.500000000, A.D. 2023-Jul-08 00:00:00.0000, -4.199470785432736E+08, 8.701222424628396E+07, 4.564115547289128E+07,
2460140.500000000, A.D. 2023-Jul-15 00:00:00.0000, -4.221041182964110E+08, 7.655950188683838E+07, 4.737350754785516E+07,
2460147.500000000, A.D. 2023-Jul-22 00:00:00.0000, -4.240063427276245E+08, 6.606053722528365E+07, 4.907725669573915E+07,
$$EOE